SatCatId,ObjectName,LaunchYear,OrbitalPeriod,LaunchMass,StatusCode,Inclination,Status,UcsData,OrbitClassEstimated,LaunchSiteCountry,Owner,UseType,Purpose,LaunchVehicleClass,TLE1,TLE2,MeanMotion,Eccentricity,OrbitClass
59901,STARLINK-31908,2024,94.27,-1.0,+,43.0,Active,0,LEO,USA,USA,Unknown,Unknown,Unknown,1 59901U 24100S   25276.33926853  .00004009  00000+0  15508-3 0  9996,2 59901  43.0003 286.9774 0000719 258.2324 101.8447 15.27588981 77162,15.27588981,7.19e-05,LEO
59902,STARLINK-31914,2024,94.27,-1.0,+,43.0,Active,0,LEO,USA,USA,Unknown,Unknown,Unknown,1 59902U 24100T   25276.10503409  .00001212  00000+0  53565-4 0  9999,2 59902  43.0030 295.5812 0000247 210.8854 149.1983 15.27563327 76942,15.27563327,2.47e-05,LEO
59903,STARLINK-31850,2024,94.27,-1.0,+,43.0,Active,0,LEO,USA,USA,Unknown,Unknown,Unknown,1 59903U 24100U   25276.45880254  .00003572  00000+0  13927-3 0  9992,2 59903  42.9984 293.0624 0000530 232.5392 127.5412 15.27578771 77055,15.27578771,5.3e-05,LEO
59904,STARLINK-31924,2024,94.26,-1.0,+,43.0,Active,0,LEO,USA,USA,Unknown,Unknown,Unknown,1 59904U 24100V   25276.53701692  .00022075  00000+0  80777-3 0  9996,2 59904  43.0004 292.8046 0001379 269.5163  90.5531 15.27642991 77118,15.27642991,0.0001379,LEO
59905,STARLINK-31898,2024,94.27,-1.0,+,43.0,Active,0,LEO,USA,USA,Unknown,Unknown,Unknown,1 59905U 24100W   25277.46193211  .00001551  00000+0  65890-4 0  9998,2 59905  43.0011 284.2477 0001300 298.1175  61.9545 15.27579763 77297,15.27579763,0.00013,LEO
59906,STARLINK-31861,2024,94.27,-1.0,+,43.0,Active,0,LEO,USA,USA,Unknown,Unknown,Unknown,1 59906U 24100X   25276.33412790  .00004475  00000+0  17199-3 0  9996,2 59906  42.9994 286.9098 0001296 276.2911  83.7793 15.27586318 77160,15.27586318,0.0001296,LEO
59907,STARLINK-31920,2024,94.27,-1.0,+,43.0,Active,0,LEO,USA,USA,Unknown,Unknown,Unknown,1 59907U 24100Y   25276.02706915  .00005603  00000+0  21296-3 0  9995,2 59907  43.0046 263.3486 0001253 249.3196 110.7521 15.27580660 77401,15.2758066,0.0001253,LEO
59908,EARTHCARE,2024,92.48,-1.0,+,97.03,Active,0,LEO,USA,ESA,Unknown,Unknown,Unknown,1 59908U 24101A   25276.62637039  .00025956  00000+0  35963-3 0  9992,2 59908  97.0257  41.5977 0001139 105.9579 254.1802 15.57060577 76644,15.57060577,0.0001139,LEO
59909,TIANQI-25,2024,102.93,-1.0,+,44.98,Active,0,LEO,PRC,China,Unknown,Unknown,Unknown,1 59909U 24102A   25277.53253182  .00000275  00000+0  27704-3 0  9999,2 59909  44.9772 319.4607 0009730 123.0830 237.0938 13.99046352 69103,13.99046352,0.000973,LEO
59910,TIANQI-26,2024,102.93,-1.0,+,44.97,Active,0,LEO,PRC,China,Unknown,Unknown,Unknown,1 59910U 24102B   25277.51594235  .00000293  00000+0  28924-3 0  9991,2 59910  44.9735 319.2210 0008715 128.4346 231.7270 13.99055305 69103,13.99055305,0.0008715,LEO
59911,TIANQI-27,2024,102.93,-1.0,+,44.98,Active,0,LEO,PRC,China,Unknown,Unknown,Unknown,1 59911U 24102C   25277.54883106  .00000286  00000+0  28504-3 0  9999,2 59911  44.9791 318.8534 0006121 144.8401 215.2836 13.99044183 69100,13.99044183,0.0006121,LEO
59912,TIANQI-28,2024,102.93,-1.0,+,44.98,Active,0,LEO,PRC,China,Unknown,Unknown,Unknown,1 59912U 24102D   25277.49652978  .00000290  00000+0  28771-3 0  9996,2 59912  44.9798 319.3050 0010499 133.7324 226.4379 13.99038338 69090,13.99038338,0.0010499,LEO
59915,PAKSAT-MM1,2024,1436.13,-1.0,+,0.01,Active,0,GSO,PRC,Pakistan,Unknown,Unknown,Unknown,1 59915U 24104A   25276.57622662  .00000154  00000+0  00000+0 0  9996,2 59915   0.0097 189.6476 0002045   0.7969  67.6821  1.00269264  4958,1.00269264,0.0002045,GEO
59917,OBJECT A,2024,95.06,-1.0,+,97.6,Active,0,LEO,PRC,China,Unknown,Unknown,Unknown,1 59917U 24105A   25277.52421713  .00006203  00000+0  33657-3 0  9998,2 59917  97.5967 287.7662 0014733  38.9176 321.3113 15.14829685 74291,15.14829685,0.0014733,LEO
59918,OBJECT B,2024,95.06,-1.0,+,97.6,Active,0,LEO,PRC,China,Unknown,Unknown,Unknown,1 59918U 24105B   25277.52696420  .00006736  00000+0  36484-3 0  9990,2 59918  97.5951 287.7245 0014628  56.9085 303.3549 15.14858398 74290,15.14858398,0.0014628,LEO
59919,OBJECT C,2024,94.91,-1.0,+,97.59,Active,0,LEO,PRC,China,Unknown,Unknown,Unknown,1 59919U 24105C   25277.53714531  .00008085  00000+0  40939-3 0  9995,2 59919  97.5931 288.6131 0014083  40.1712 320.0559 15.17179891 74362,15.17179891,0.0014083,LEO
59920,OBJECT D,2024,94.82,-1.0,+,97.6,Active,0,LEO,PRC,China,Unknown,Unknown,Unknown,1 59920U 24105D   25277.55004215  .00009997  00000+0  48297-3 0  9998,2 59920  97.5987 289.6029 0013758  38.4744 321.7468 15.18763176 74403,15.18763176,0.0013758,LEO
59921,OBJECT E,2024,94.93,-1.0,+,97.59,Active,0,LEO,PRC,China,Unknown,Unknown,Unknown,1 59921U 24105E   25277.51704457  .00009038  00000+0  45989-3 0  9991,2 59921  97.5941 288.5232 0014025  39.6299 320.5956 15.16974037 74355,15.16974037,0.0014025,LEO
59922,STARLINK-31872,2024,94.27,-1.0,+,43.0,Active,0,LEO,USA,USA,Unknown,Unknown,Unknown,1 59922U 24106A   25277.51256326  .00016854  00000+0  62056-3 0  9998,2 59922  42.9991 134.8661 0000974 193.1604 166.9222 15.27580470 76679,15.2758047,9.74e-05,LEO
59923,STARLINK-31972,2024,94.26,-1.0,+,43.0,Active,0,LEO,USA,USA,Unknown,Unknown,Unknown,1 59923U 24106B   25276.64454625  .00000480  00000+0  26968-4 0  9995,2 59923  42.9999 139.5270 0001346 268.7681  91.3016 15.27574523 76555,15.27574523,0.0001346,LEO
59924,STARLINK-31958,2024,94.27,-1.0,+,43.0,Active,0,LEO,USA,USA,Unknown,Unknown,Unknown,1 59924U 24106C   25276.65148683 -.00002340  00000+0 -75572-4 0  9995,2 59924  43.0023 124.8726 0001145 281.3676  78.7047 15.27572626 76679,15.27572626,0.0001145,LEO
59925,STARLINK-31959,2024,94.27,-1.0,+,43.0,Active,0,LEO,USA,USA,Unknown,Unknown,Unknown,1 59925U 24106D   25276.61419163  .00003573  00000+0  13933-3 0  9995,2 59925  43.0004 135.7590 0001734 272.0944  87.9708 15.27575947 76549,15.27575947,0.0001734,LEO
59926,STARLINK-31957,2024,94.27,-1.0,+,43.0,Active,0,LEO,USA,USA,Unknown,Unknown,Unknown,1 59926U 24106E   25276.60853701  .00007388  00000+0  27750-3 0  9995,2 59926  43.0014 139.2588 0000497 330.4248  29.6575 15.27606538 76555,15.27606538,4.97e-05,LEO
59927,STARLINK-31968,2024,94.27,-1.0,+,43.0,Active,0,LEO,USA,USA,Unknown,Unknown,Unknown,1 59927U 24106F   25276.02781163  .00004722  00000+0  18104-3 0  9996,2 59927  43.0022 142.6428 0001663 275.5587  84.5075 15.27571884 76467,15.27571884,0.0001663,LEO
59928,STARLINK-31970,2024,94.27,-1.0,+,43.0,Active,0,LEO,USA,USA,Unknown,Unknown,Unknown,1 59928U 24106G   25276.64070768  .00004323  00000+0  16654-3 0  9992,2 59928  42.9954 139.4969 0000201  28.7746 331.3117 15.27571466 76552,15.27571466,2.01e-05,LEO
59929,STARLINK-31932,2024,94.27,-1.0,+,43.0,Active,0,LEO,USA,USA,Unknown,Unknown,Unknown,1 59929U 24106H   25276.66670139  .00031074  00000+0  11350-2 0  9993,2 59929  43.0037 136.0970 0001414 270.7463 102.5386 15.27549446  5836,15.27549446,0.0001414,LEO
59930,STARLINK-31956,2024,94.27,-1.0,+,43.0,Active,0,LEO,USA,USA,Unknown,Unknown,Unknown,1 59930U 24106J   25276.63428424  .00000764  00000+0  37301-4 0  9998,2 59930  43.0018 139.4494 0001378 280.9706  79.0991 15.27569946 76506,15.27569946,0.0001378,LEO
59931,STARLINK-31960,2024,94.27,-1.0,+,43.0,Active,0,LEO,USA,USA,Unknown,Unknown,Unknown,1 59931U 24106K   25276.03037089  .00003645  00000+0  14190-3 0  9997,2 59931  43.0019 142.6591 0001115 293.9413  66.1322 15.27582075 76413,15.27582075,0.0001115,LEO
59932,STARLINK-31432,2024,94.27,-1.0,+,43.0,Active,0,LEO,USA,USA,Unknown,Unknown,Unknown,1 59932U 24106L   25276.65612915 -.00080353  00000+0 -29450-2 0  9990,2 59932  42.9941 139.6255 0000901   9.3012 350.7856 15.27549573 76505,15.27549573,9.01e-05,LEO
59933,STARLINK-31853,2024,94.27,-1.0,+,43.0,Active,0,LEO,USA,USA,Unknown,Unknown,Unknown,1 59933U 24106M   25276.63813523  .00004817  00000+0  18452-3 0  9997,2 59933  42.9982 139.4745 0001575 258.7340 101.3334 15.27567931 76504,15.27567931,0.0001575,LEO
59934,STARLINK-31971,2024,94.27,-1.0,+,43.0,Active,0,LEO,USA,USA,Unknown,Unknown,Unknown,1 59934U 24106N   25276.01427242  .00000100  00000+0  13174-4 0  9997,2 59934  43.0028 139.7893 0001701 276.0314  84.0344 15.27596372 76329,15.27596372,0.0001701,LEO
59936,STARLINK-31962,2024,94.27,-1.0,+,43.0,Active,0,LEO,USA,USA,Unknown,Unknown,Unknown,1 59936U 24106Q   25276.65998500  .00001285  00000+0  56195-4 0  9994,2 59936  43.0018 139.6428 0001095 277.9867  82.0861 15.27581271 76506,15.27581271,0.0001095,LEO
59937,STARLINK-31879,2024,94.27,-1.0,+,43.01,Active,0,LEO,USA,USA,Unknown,Unknown,Unknown,1 59937U 24106R   25276.60486659 -.00006923  00000+0 -24240-3 0  9998,2 59937  43.0063 140.0836 0001419 268.4464  91.6225 15.27562292 76540,15.27562292,0.0001419,LEO
59938,STARLINK-31876,2024,94.27,-1.0,+,43.0,Active,0,LEO,USA,USA,Unknown,Unknown,Unknown,1 59938U 24106S   25275.97656126  .00003951  00000+0  15303-3 0  9992,2 59938  43.0003 143.1127 0001391 286.8385  73.2314 15.27575507 76411,15.27575507,0.0001391,LEO
59939,STARLINK-31955,2024,94.27,-1.0,+,43.0,Active,0,LEO,USA,USA,Unknown,Unknown,Unknown,1 59939U 24106T   25276.62271588  .00003514  00000+0  13716-3 0  9992,2 59939  42.9991 139.3593 0001094 232.2014 127.8739 15.27574335 76543,15.27574335,0.0001094,LEO
59940,STARLINK-31946,2024,94.27,-1.0,+,43.0,Active,0,LEO,USA,USA,Unknown,Unknown,Unknown,1 59940U 24106U   25276.01255058 -.00000926  00000+0 -24142-4 0  9993,2 59940  43.0036 143.3834 0001570 276.3832  83.6840 15.27536220 67033,15.2753622,0.000157,LEO
59941,STARLINK-31948,2024,94.27,-1.0,+,43.0,Active,0,LEO,USA,USA,Unknown,Unknown,Unknown,1 59941U 24106V   25276.66045350  .00010638  00000+0  39564-3 0  9999,2 59941  42.9992 136.0802 0000502  68.0146 292.0759 15.27569585 76546,15.27569585,5.02e-05,LEO
59942,STARLINK-31900,2024,94.27,-1.0,+,43.0,Active,0,LEO,USA,USA,Unknown,Unknown,Unknown,1 59942U 24106W   25276.61243924  .00002949  00000+0  11666-3 0  9991,2 59942  43.0015 139.2902 0001277 305.6093  54.4640 15.27575187 76502,15.27575187,0.0001277,LEO
